CCSDS_OMM_VERS = 2.0
CREATION_DATE  = 
ORIGINATOR     = 

OBJECT_NAME    = CZ-2F DEB
OBJECT_ID      = 2026-024D
CENTER_NAME    = EARTH
REF_FRAME      = TEME
TIME_SYSTEM    = UTC
MEAN_ELEMENT_THEORY = SGP/SGP4

EPOCH          = 2026-02-19T17:54:47.494656
MEAN_MOTION    = 15.17682163
ECCENTRICITY   = .02573277
INCLINATION    = 50.3132
RA_OF_ASC_NODE = 106.3914
ARG_OF_PERICENTER = 209.4473
MEAN_ANOMALY   = 149.1777

EPHEMERIS_TYPE = 0
CLASSIFICATION_TYPE = U
NORAD_CAT_ID   = 67692
ELEMENT_SET_NO = 999
REV_AT_EPOCH   = 189
BSTAR          = .41025242E-2
MEAN_MOTION_DOT = .207829E-2
MEAN_MOTION_DDOT = 0

CCSDS_OMM_VERS = 2.0
CREATION_DATE  = 
ORIGINATOR     = 

OBJECT_NAME    = STARLINK-36748
OBJECT_ID      = 2026-025A
CENTER_NAME    = EARTH
REF_FRAME      = TEME
TIME_SYSTEM    = UTC
MEAN_ELEMENT_THEORY = SGP/SGP4

EPOCH          = 2026-02-19T22:00:03.000096
MEAN_MOTION    = 15.87496050
ECCENTRICITY   = .00017127
INCLINATION    = 97.2781
RA_OF_ASC_NODE = 161.5329
ARG_OF_PERICENTER = 67.5016
MEAN_ANOMALY   = 39.6302

EPHEMERIS_TYPE = 0
CLASSIFICATION_TYPE = U
NORAD_CAT_ID   = 67693
ELEMENT_SET_NO = 999
REV_AT_EPOCH   = 299
BSTAR          = -.7054294E-2
MEAN_MOTION_DOT = -.1625278E-1
MEAN_MOTION_DDOT = 0

CCSDS_OMM_VERS = 2.0
CREATION_DATE  = 
ORIGINATOR     = 

OBJECT_NAME    = STARLINK-36753
OBJECT_ID      = 2026-025B
CENTER_NAME    = EARTH
REF_FRAME      = TEME
TIME_SYSTEM    = UTC
MEAN_ELEMENT_THEORY = SGP/SGP4

EPOCH          = 2026-02-19T22:00:03.000096
MEAN_MOTION    = 15.88384131
ECCENTRICITY   = .00018174
INCLINATION    = 97.2768
RA_OF_ASC_NODE = 161.5428
ARG_OF_PERICENTER = 75.0696
MEAN_ANOMALY   = 55.1785

EPHEMERIS_TYPE = 0
CLASSIFICATION_TYPE = U
NORAD_CAT_ID   = 67694
ELEMENT_SET_NO = 999
REV_AT_EPOCH   = 315
BSTAR          = -.66932915E-2
MEAN_MOTION_DOT = -.161365E-1
MEAN_MOTION_DDOT = 0

CCSDS_OMM_VERS = 2.0
CREATION_DATE  = 
ORIGINATOR     = 

OBJECT_NAME    = STARLINK-36750
OBJECT_ID      = 2026-025C
CENTER_NAME    = EARTH
REF_FRAME      = TEME
TIME_SYSTEM    = UTC
MEAN_ELEMENT_THEORY = SGP/SGP4

EPOCH          = 2026-02-19T22:00:03.000096
MEAN_MOTION    = 15.87822897
ECCENTRICITY   = .00016199
INCLINATION    = 97.2776
RA_OF_ASC_NODE = 161.5363
ARG_OF_PERICENTER = 73.1349
MEAN_ANOMALY   = 42.4512

EPHEMERIS_TYPE = 0
CLASSIFICATION_TYPE = U
NORAD_CAT_ID   = 67695
ELEMENT_SET_NO = 999
REV_AT_EPOCH   = 299
BSTAR          = -.69313586E-2
MEAN_MOTION_DOT = -.1623288E-1
MEAN_MOTION_DDOT = 0

CCSDS_OMM_VERS = 2.0
CREATION_DATE  = 
ORIGINATOR     = 

OBJECT_NAME    = STARLINK-36401
OBJECT_ID      = 2026-025D
CENTER_NAME    = EARTH
REF_FRAME      = TEME
TIME_SYSTEM    = UTC
MEAN_ELEMENT_THEORY = SGP/SGP4

EPOCH          = 2026-02-19T22:00:03.000096
MEAN_MOTION    = 15.88076331
ECCENTRICITY   = .0001639
INCLINATION    = 97.2773
RA_OF_ASC_NODE = 161.5394
ARG_OF_PERICENTER = 73.9011
MEAN_ANOMALY   = 48.5687

EPHEMERIS_TYPE = 0
CLASSIFICATION_TYPE = U
NORAD_CAT_ID   = 67696
ELEMENT_SET_NO = 999
REV_AT_EPOCH   = 299
BSTAR          = -.67773621E-2
MEAN_MOTION_DOT = -.1609377E-1
MEAN_MOTION_DDOT = 0

CCSDS_OMM_VERS = 2.0
CREATION_DATE  = 
ORIGINATOR     = 

OBJECT_NAME    = STARLINK-36704
OBJECT_ID      = 2026-025E
CENTER_NAME    = EARTH
REF_FRAME      = TEME
TIME_SYSTEM    = UTC
MEAN_ELEMENT_THEORY = SGP/SGP4

EPOCH          = 2026-02-19T22:00:03.000096
MEAN_MOTION    = 15.88681090
ECCENTRICITY   = .00017009
INCLINATION    = 97.2762
RA_OF_ASC_NODE = 161.5460
ARG_OF_PERICENTER = 71.6444
MEAN_ANOMALY   = 66.4229

EPHEMERIS_TYPE = 0
CLASSIFICATION_TYPE = U
NORAD_CAT_ID   = 67697
ELEMENT_SET_NO = 999
REV_AT_EPOCH   = 299
BSTAR          = -.6530848E-2
MEAN_MOTION_DOT = -.15999E-1
MEAN_MOTION_DDOT = 0

CCSDS_OMM_VERS = 2.0
CREATION_DATE  = 
ORIGINATOR     = 

OBJECT_NAME    = STARLINK-36697
OBJECT_ID      = 2026-025F
CENTER_NAME    = EARTH
REF_FRAME      = TEME
TIME_SYSTEM    = UTC
MEAN_ELEMENT_THEORY = SGP/SGP4

EPOCH          = 2026-02-19T22:00:03.000096
MEAN_MOTION    = 15.88897585
ECCENTRICITY   = .00017781
INCLINATION    = 97.2762
RA_OF_ASC_NODE = 161.5485
ARG_OF_PERICENTER = 70.4606
MEAN_ANOMALY   = 73.2786

EPHEMERIS_TYPE = 0
CLASSIFICATION_TYPE = U
NORAD_CAT_ID   = 67698
ELEMENT_SET_NO = 999
REV_AT_EPOCH   = 294
BSTAR          = -.64419939E-2
MEAN_MOTION_DOT = -.1596026E-1
MEAN_MOTION_DDOT = 0

CCSDS_OMM_VERS = 2.0
CREATION_DATE  = 
ORIGINATOR     = 

OBJECT_NAME    = STARLINK-36716
OBJECT_ID      = 2026-025G
CENTER_NAME    = EARTH
REF_FRAME      = TEME
TIME_SYSTEM    = UTC
MEAN_ELEMENT_THEORY = SGP/SGP4

EPOCH          = 2026-02-19T22:00:03.000096
MEAN_MOTION    = 15.89179239
ECCENTRICITY   = .00016692
INCLINATION    = 97.2756
RA_OF_ASC_NODE = 161.5514
ARG_OF_PERICENTER = 78.7309
MEAN_ANOMALY   = 72.3478

EPHEMERIS_TYPE = 0
CLASSIFICATION_TYPE = U
NORAD_CAT_ID   = 67699
ELEMENT_SET_NO = 999
REV_AT_EPOCH   = 315
BSTAR          = -.63065631E-2
MEAN_MOTION_DOT = -.1552494E-1
MEAN_MOTION_DDOT = 0

CCSDS_OMM_VERS = 2.0
CREATION_DATE  = 
ORIGINATOR     = 

OBJECT_NAME    = STARLINK-36712
OBJECT_ID      = 2026-025H
CENTER_NAME    = EARTH
REF_FRAME      = TEME
TIME_SYSTEM    = UTC
MEAN_ELEMENT_THEORY = SGP/SGP4

EPOCH          = 2026-02-19T22:00:03.000096
MEAN_MOTION    = 15.89451561
ECCENTRICITY   = .00016836
INCLINATION    = 97.2754
RA_OF_ASC_NODE = 161.5548
ARG_OF_PERICENTER = 75.0227
MEAN_ANOMALY   = 83.1786

EPHEMERIS_TYPE = 0
CLASSIFICATION_TYPE = U
NORAD_CAT_ID   = 67700
ELEMENT_SET_NO = 999
REV_AT_EPOCH   = 294
BSTAR          = -.61881359E-2
MEAN_MOTION_DOT = -.1775877E-1
MEAN_MOTION_DDOT = .85087455E-3

CCSDS_OMM_VERS = 2.0
CREATION_DATE  = 
ORIGINATOR     = 

OBJECT_NAME    = STARLINK-36713
OBJECT_ID      = 2026-025J
CENTER_NAME    = EARTH
REF_FRAME      = TEME
TIME_SYSTEM    = UTC
MEAN_ELEMENT_THEORY = SGP/SGP4

EPOCH          = 2026-02-19T22:00:03.000096
MEAN_MOTION    = 15.89729990
ECCENTRICITY   = .0001776
INCLINATION    = 97.2748
RA_OF_ASC_NODE = 161.5572
ARG_OF_PERICENTER = 69.2021
MEAN_ANOMALY   = 96.0751

EPHEMERIS_TYPE = 0
CLASSIFICATION_TYPE = U
NORAD_CAT_ID   = 67701
ELEMENT_SET_NO = 999
REV_AT_EPOCH   = 315
BSTAR          = -.60871918E-2
MEAN_MOTION_DOT = -.1771452E-1
MEAN_MOTION_DDOT = .8492462E-3

CCSDS_OMM_VERS = 2.0
CREATION_DATE  = 
ORIGINATOR     = 

OBJECT_NAME    = STARLINK-36695
OBJECT_ID      = 2026-025K
CENTER_NAME    = EARTH
REF_FRAME      = TEME
TIME_SYSTEM    = UTC
MEAN_ELEMENT_THEORY = SGP/SGP4

EPOCH          = 2026-02-19T22:00:03.000096
MEAN_MOTION    = 15.89956324
ECCENTRICITY   = .00018005
INCLINATION    = 97.2745
RA_OF_ASC_NODE = 161.5596
ARG_OF_PERICENTER = 69.8125
MEAN_ANOMALY   = 101.3480

EPHEMERIS_TYPE = 0
CLASSIFICATION_TYPE = U
NORAD_CAT_ID   = 67702
ELEMENT_SET_NO = 999
REV_AT_EPOCH   = 299
BSTAR          = -.59894067E-2
MEAN_MOTION_DOT = -.1762977E-1
MEAN_MOTION_DDOT = .84357359E-3

CCSDS_OMM_VERS = 2.0
CREATION_DATE  = 
ORIGINATOR     = 

OBJECT_NAME    = STARLINK-36630
OBJECT_ID      = 2026-025L
CENTER_NAME    = EARTH
REF_FRAME      = TEME
TIME_SYSTEM    = UTC
MEAN_ELEMENT_THEORY = SGP/SGP4

EPOCH          = 2026-02-19T22:00:03.000096
MEAN_MOTION    = 15.90173238
ECCENTRICITY   = .00017185
INCLINATION    = 97.2744
RA_OF_ASC_NODE = 161.5623
ARG_OF_PERICENTER = 71.3874
MEAN_ANOMALY   = 105.4698

EPHEMERIS_TYPE = 0
CLASSIFICATION_TYPE = U
NORAD_CAT_ID   = 67703
ELEMENT_SET_NO = 999
REV_AT_EPOCH   = 299
BSTAR          = -.59129117E-2
MEAN_MOTION_DOT = -.175954E-1
MEAN_MOTION_DDOT = .84231277E-3

