CZ-2F DEB               
1 67692U 26024D   26050.74638304  .00207829  00000+0  41025-2 0  9993
2 67692  50.3132 106.3914 0257327 209.4473 149.1777 15.17682163  1899
STARLINK-36748          
1 67693U 26025A   26050.91670139 -.01625278  00000+0 -70543-2 0  9998
2 67693  97.2781 161.5329 0001712  67.5016  39.6302 15.87496050  2998
STARLINK-36753          
1 67694U 26025B   26050.91670139 -.01613650  00000+0 -66933-2 0  9998
2 67694  97.2768 161.5428 0001817  75.0696  55.1785 15.88384131  3152
STARLINK-36750          
1 67695U 26025C   26050.91670139 -.01623288  00000+0 -69314-2 0  9993
2 67695  97.2776 161.5363 0001619  73.1349  42.4512 15.87822897  2997
STARLINK-36401          
1 67696U 26025D   26050.91670139 -.01609377  00000+0 -67774-2 0  9995
2 67696  97.2773 161.5394 0001639  73.9011  48.5687 15.88076331  2990
STARLINK-36704          
1 67697U 26025E   26050.91670139 -.01599900  00000+0 -65308-2 0  9997
2 67697  97.2762 161.5460 0001700  71.6444  66.4229 15.88681090  2992
STARLINK-36697          
1 67698U 26025F   26050.91670139 -.01596026  00000+0 -64420-2 0  9998
2 67698  97.2762 161.5485 0001778  70.4606  73.2786 15.88897585  2949
STARLINK-36716          
1 67699U 26025G   26050.91670139 -.01552494  00000+0 -63066-2 0  9995
2 67699  97.2756 161.5514 0001669  78.7309  72.3478 15.89179239  3158
STARLINK-36712          
1 67700U 26025H   26050.91670139 -.01775877  85087-3 -61881-2 0  9995
2 67700  97.2754 161.5548 0001683  75.0227  83.1786 15.89451561  2940
STARLINK-36713          
1 67701U 26025J   26050.91670139 -.01771452  84925-3 -60872-2 0  9990
2 67701  97.2748 161.5572 0001776  69.2021  96.0751 15.89729990  3154
STARLINK-36695          
1 67702U 26025K   26050.91670139 -.01762977  84357-3 -59894-2 0  9994
2 67702  97.2745 161.5596 0001800  69.8125 101.3480 15.89956324  2990
STARLINK-36630          
1 67703U 26025L   26050.91670139 -.01759540  84231-3 -59129-2 0  9999
2 67703  97.2744 161.5623 0001718  71.3874 105.4698 15.90173238  2991
